[{"OBJECT_NAME":"STARLINK-34747","OBJECT_ID":"2025-158R","EPOCH":"2026-03-09T14:38:35.287296","MEAN_MOTION":15.05662435,"ECCENTRICITY":0.0002311,"INCLINATION":97.6019,"RA_OF_ASC_NODE":294.0063,"ARG_OF_PERICENTER":82.9741,"MEAN_ANOMALY":277.1748,"EPHEMERIS_TYPE":0,"CLASSIFICATION_TYPE":"U","NORAD_CAT_ID":64947,"ELEMENT_SET_NO":999,"REV_AT_EPOCH":3534,"BSTAR":0.00038152,"MEAN_MOTION_DOT":5.45e-5,"MEAN_MOTION_DDOT":0},{"OBJECT_NAME":"COSMOS 886 DEB","OBJECT_ID":"1976-126H","EPOCH":"2026-03-09T13:45:20.274912","MEAN_MOTION":13.34259572,"ECCENTRICITY":0.0780969,"INCLINATION":65.7903,"RA_OF_ASC_NODE":130.587,"ARG_OF_PERICENTER":142.7819,"MEAN_ANOMALY":223.008,"EPHEMERIS_TYPE":0,"CLASSIFICATION_TYPE":"U","NORAD_CAT_ID":9651,"ELEMENT_SET_NO":999,"REV_AT_EPOCH":33873,"BSTAR":0.00068915,"MEAN_MOTION_DOT":1.985e-5,"MEAN_MOTION_DDOT":0}]
